OBJECT_NAME,OBJECT_ID,EPOCH,MEAN_MOTION,ECCENTRICITY,INCLINATION,RA_OF_ASC_NODE,ARG_OF_PERICENTER,MEAN_ANOMALY,EPHEMERIS_TYPE,CLASSIFICATION_TYPE,NORAD_CAT_ID,ELEMENT_SET_NO,REV_AT_EPOCH,BSTAR,MEAN_MOTION_DOT,MEAN_MOTION_DDOT
SHIJIAN-17 (SJ-17),2016-065A,2026-06-26T14:04:22.533024,0.99858719,.0002233,5.7763,72.4953,28.5327,246.5081,0,U,41838,999,3529,0,.123E-5,0
GOES 16,2016-071A,2026-06-26T22:19:17.408640,1.00272080,.00005846,0.3654,85.5325,9.0124,50.6297,0,U,41866,999,3520,0,-.8E-6,0
TIANLIAN 1-04,2016-072A,2026-06-26T18:31:35.102784,1.00273179,.00428826,0.8929,82.8675,90.3195,196.3824,0,U,41869,999,3539,0,.42E-6,0
WGS F8 (USA 272),2016-075A,2026-06-26T17:01:38.622720,1.00278356,.00005397,0.0463,53.6813,46.9656,219.4604,0,U,41879,999,3491,0,0,0
FENGYUN 4A,2016-077A,2026-06-26T13:08:30.580224,1.00264621,.0008229,2.3469,80.1884,152.1316,3.0696,0,U,41882,999,3502,0,-.348E-5,0
ECHOSTAR 19,2016-079A,2026-06-26T22:21:24.705216,1.00270693,.00016228,0.0177,21.3769,67.2961,64.6202,0,U,41893,999,3480,0,-.127E-5,0
JCSAT-110A (JCSAT-15),2016-082A,2026-06-26T21:37:49.973376,1.00275034,.00010069,0.0181,358.1573,100.0677,251.3268,0,U,41903,999,3485,0,-.34E-5,0
STAR ONE D1,2016-082B,2026-06-26T22:25:09.346080,1.00271765,.00022945,0.0223,54.9584,56.2632,56.1217,0,U,41904,999,3487,0,-.199E-5,0
TJS-2,2017-001A,2026-06-26T20:46:38.455968,1.00272292,.00007697,0.8582,85.2182,45.0948,162.8659,0,U,41911,999,3481,0,.4E-7,0
SBIRS GEO-4 (USA 273),2017-004A,2026-06-26T22:55:02.620416,1.00273796,.00023739,2.2613,43.5515,44.5546,191.6311,0,U,41937,999,3469,0,.133E-5,0
HISPASAT 36W-1,2017-006A,2026-06-26T12:22:51.828096,1.00269517,.0000977,0.0087,285.7882,164.6045,333.9657,0,U,41942,999,3433,0,-.233E-5,0
TELKOM 3S,2017-007A,2026-06-26T21:40:04.758240,1.00273122,.00025028,0.0123,63.0924,32.3536,262.5954,0,U,41944,999,3423,0,-.351E-5,0
INTELSAT 32E (IS-32E),2017-007B,2026-06-26T22:59:59.318016,1.00268631,.00005079,0.0144,338.3406,26.5367,212.0104,0,U,41945,999,3432,0,-.258E-5,0
ECHOSTAR 23,2017-014A,2026-06-26T15:27:07.871904,1.00271326,.00020855,0.0283,20.8116,74.4920,301.3478,0,U,42070,999,3401,0,0,0
WGS F9 (USA 275),2017-016A,2026-06-26T17:37:44.096160,1.00271032,.00003725,0.0257,349.3327,72.7542,105.2043,0,U,42075,999,3399,0,0,0
SES-10,2017-017A,2026-06-26T19:04:47.002944,1.00271701,.00029946,0.0202,39.1664,60.2342,34.8140,0,U,42432,999,3385,0,-.261E-5,0
CHINASAT 16 (SJ-13),2017-018A,2026-06-25T23:23:27.062592,1.00275032,.00040437,0.0997,89.7024,125.6560,160.1297,0,U,42662,999,3383,0,-.342E-5,0
KOREASAT 7,2017-023A,2026-06-26T21:39:34.805088,1.00271078,.00004683,0.0202,20.8844,53.4601,281.4769,0,U,42691,999,3346,0,-.35E-5,0
SGDC,2017-023B,2026-06-26T10:41:14.061696,1.00271749,.00028605,0.0223,58.2366,42.5775,259.2142,0,U,42692,999,3350,0,-.238E-5,0
GSAT-9,2017-024A,2026-06-26T19:51:31.426848,1.00275521,.0002099,0.0387,88.1199,16.8878,205.0967,0,U,42695,999,3339,0,-.275E-5,0
INMARSAT 5-F4,2017-025A,2026-06-26T17:57:17.974080,1.00277150,.00007217,0.0278,22.9153,19.9960,197.7868,0,U,42698,999,3337,0,0,0
SES-15,2017-026A,2026-06-26T17:17:04.322688,1.00267078,.00007303,0.0197,336.5648,101.7226,326.6485,0,U,42709,999,752,0,.72E-6,0
QZS-2 (MICHIBIKI-2),2017-028A,2026-06-26T11:46:38.651232,1.00281441,.0759188,39.4133,243.0175,269.3662,80.9134,0,U,42738,999,771,0,-.138E-5,0
VIASAT-2,2017-029A,2026-06-26T13:55:48.415008,1.00271969,.0000478,0.0170,299.6959,125.7864,348.2901,0,U,42740,999,3329,0,-.254E-5,0
EUTELSAT 172B,2017-029B,2026-06-26T21:55:33.273984,1.00270990,.00002492,0.0403,139.2682,302.2383,334.4140,0,U,42741,999,3383,0,.6E-7,0
GSAT-19,2017-031A,2026-06-26T23:02:46.877856,1.00272326,.00071641,0.0146,326.2494,110.3451,232.0265,0,U,42747,999,3324,0,.137E-5,0
ECHOSTAR 21,2017-032A,2026-06-26T19:26:44.467296,1.00273326,.00026082,1.7701,356.3529,88.7011,131.8214,0,U,42749,999,3319,0,.77E-6,0
BULGARIASAT-1,2017-038A,2026-06-26T15:59:06.064224,1.00274055,.00036044,0.0323,74.7153,32.4833,49.2702,0,U,42801,999,3294,0,.23E-6,0
HELLAS-SAT 3,2017-040A,2026-06-26T23:00:17.117280,1.00269535,.00043333,0.0409,36.2008,23.7398,239.2163,0,U,42814,999,3290,0,.164E-5,0
GSAT-17,2017-040B,2026-06-26T21:33:12.916224,1.00272486,.00013813,0.0304,84.4367,207.3592,40.0258,0,U,42815,999,3288,0,-.246E-5,0
INTELSAT 35E (IS-35E),2017-041A,2026-06-26T22:54:04.035168,1.00269159,.00023908,0.0271,24.3394,73.2171,126.5436,0,U,42818,999,3291,0,0,0
COSMOS 2520,2017-046A,2026-06-26T23:02:01.949856,1.00266696,.00003843,0.0406,98.5521,65.0069,142.0217,0,U,42907,999,3249,0,.149E-5,0
